{
  "type": "FeatureCollection",
  "features": [
    {
      "type": "Feature",
      "properties": {
        "norad_id": 41877,
        "name": "RESOURCESAT-2A",
        "group": "resource",
        "lat": 72.8002178919155,
        "lon": 22.921925447733052,
        "alt_km": 813.7142982303958,
        "timestamp": "2025-12-08T23:34:03.627041+00:00",
        "meta_object_name": "RESOURCESAT-2A",
        "meta_object_id": "2016-074A",
        "meta_epoch": "2025-12-08T14:46:10.056288",
        "meta_mean_motion": 14.21597173,
        "meta_eccentricity": 0.00011338,
        "meta_inclination": 98.7763,
        "meta_ra_of_asc_node": 52.4954,
        "meta_arg_of_pericenter": 273.5938,
        "meta_mean_anomaly": 86.511,
        "meta_ephemeris_type": 0,
        "meta_classification_type": "U",
        "meta_norad_cat_id": 41877,
        "meta_element_set_no": 999,
        "meta_rev_at_epoch": 46722,
        "meta_bstar": 0.00018255206,
        "meta_mean_motion_dot": 3.56e-06,
        "meta_mean_motion_ddot": 0,
        "tle_line1": "1 41877U 16074A   25342.61539417  .00000356  00000+0  18255-3 0  9994",
        "tle_line2": "2 41877  98.7763  52.4954 0001133 273.5938  86.5110 14.21597173467225"
      },
      "geometry": {
        "type": "Point",
        "coordinates": [
          22.921925447733052,
          72.8002178919155
        ]
      }
    },
    {
      "type": "Feature",
      "properties": {
        "norad_id": 41948,
        "name": "CARTOSAT-2D",
        "group": "resource",
        "lat": -22.997933077185415,
        "lon": -142.64278547073044,
        "alt_km": 511.18192461922354,
        "timestamp": "2025-12-08T23:34:03.627051+00:00",
        "meta_object_name": "CARTOSAT-2D",
        "meta_object_id": "2017-008A",
        "meta_epoch": "2025-12-08T14:46:21.458496",
        "meta_mean_motion": 15.19195726,
        "meta_eccentricity": 0.00043185,
        "meta_inclination": 97.439,
        "meta_ra_of_asc_node": 40.1754,
        "meta_arg_of_pericenter": 175.1332,
        "meta_mean_anomaly": 184.9946,
        "meta_ephemeris_type": 0,
        "meta_classification_type": "U",
        "meta_norad_cat_id": 41948,
        "meta_element_set_no": 999,
        "meta_rev_at_epoch": 48864,
        "meta_bstar": 0.00034698873,
        "meta_mean_motion_dot": 7.237e-05,
        "meta_mean_motion_ddot": 0,
        "tle_line1": "1 41948U 17008A   25342.61552614  .00007237  00000+0  34699-3 0  9990",
        "tle_line2": "2 41948  97.4390  40.1754 0004318 175.1332 184.9946 15.19195726488646"
      },
      "geometry": {
        "type": "Point",
        "coordinates": [
          -142.64278547073044,
          -22.997933077185415
        ]
      }
    },
    {
      "type": "Feature",
      "properties": {
        "norad_id": 42063,
        "name": "SENTINEL-2B",
        "group": "resource",
        "lat": -77.39014379516776,
        "lon": 97.87803945160906,
        "alt_km": 797.1421434485437,
        "timestamp": "2025-12-08T23:34:03.627061+00:00",
        "meta_object_name": "SENTINEL-2B",
        "meta_object_id": "2017-013A",
        "meta_epoch": "2025-12-08T13:52:28.409376",
        "meta_mean_motion": 14.3081387,
        "meta_eccentricity": 0.0001138,
        "meta_inclination": 98.5723,
        "meta_ra_of_asc_node": 55.0826,
        "meta_arg_of_pericenter": 98.0466,
        "meta_mean_anomaly": 262.0846,
        "meta_ephemeris_type": 0,
        "meta_classification_type": "U",
        "meta_norad_cat_id": 42063,
        "meta_element_set_no": 999,
        "meta_rev_at_epoch": 45738,
        "meta_bstar": 0.00014672005,
        "meta_mean_motion_dot": 3.41e-06,
        "meta_mean_motion_ddot": 0,
        "tle_line1": "1 42063U 17013A   25342.57810659  .00000341  00000+0  14672-3 0  9994",
        "tle_line2": "2 42063  98.5723  55.0826 0001138  98.0466 262.0846 14.30813870457383"
      },
      "geometry": {
        "type": "Point",
        "coordinates": [
          97.87803945160906,
          -77.39014379516776
        ]
      }
    },
    {
      "type": "Feature",
      "properties": {
        "norad_id": 42767,
        "name": "CARTOSAT-2E",
        "group": "resource",
        "lat": 65.27346519481817,
        "lon": -122.86085496165384,
        "alt_km": 502.9749481398703,
        "timestamp": "2025-12-08T23:34:03.627071+00:00",
        "meta_object_name": "CARTOSAT-2E",
        "meta_object_id": "2017-036C",
        "meta_epoch": "2025-12-08T15:09:56.268864",
        "meta_mean_motion": 15.1926013,
        "meta_eccentricity": 0.00023154,
        "meta_inclination": 97.4558,
        "meta_ra_of_asc_node": 40.2719,
        "meta_arg_of_pericenter": 256.8387,
        "meta_mean_anomaly": 103.2589,
        "meta_ephemeris_type": 0,
        "meta_classification_type": "U",
        "meta_norad_cat_id": 42767,
        "meta_element_set_no": 999,
        "meta_rev_at_epoch": 46921,
        "meta_bstar": 0.00036455982,
        "meta_mean_motion_dot": 7.62e-05,
        "meta_mean_motion_ddot": 0,
        "tle_line1": "1 42767U 17036C   25342.63190126  .00007620  00000+0  36456-3 0  9998",
        "tle_line2": "2 42767  97.4558  40.2719 0002315 256.8387 103.2589 15.19260130469217"
      },
      "geometry": {
        "type": "Point",
        "coordinates": [
          -122.86085496165384,
          65.27346519481817
        ]
      }
    },
    {
      "type": "Feature",
      "properties": {
        "norad_id": 42920,
        "name": "FORMOSAT-5",
        "group": "resource",
        "lat": 8.638462275762691,
        "lon": 56.11312119668861,
        "alt_km": 720.630852123375,
        "timestamp": "2025-12-08T23:34:03.627082+00:00",
        "meta_object_name": "FORMOSAT-5",
        "meta_object_id": "2017-049A",
        "meta_epoch": "2025-12-08T15:15:09.361728",
        "meta_mean_motion": 14.51002086,
        "meta_eccentricity": 0.00100499,
        "meta_inclination": 98.2456,
        "meta_ra_of_asc_node": 57.0359,
        "meta_arg_of_pericenter": 309.4405,
        "meta_mean_anomaly": 50.59,
        "meta_ephemeris_type": 0,
        "meta_classification_type": "U",
        "meta_norad_cat_id": 42920,
        "meta_element_set_no": 999,
        "meta_rev_at_epoch": 43904,
        "meta_bstar": 0.00014873234,
        "meta_mean_motion_dot": 5.45e-06,
        "meta_mean_motion_ddot": 0,
        "tle_line1": "1 42920U 17049A   25342.63552502  .00000545  00000+0  14873-3 0  9991",
        "tle_line2": "2 42920  98.2456  57.0359 0010049 309.4405  50.5900 14.51002086439047"
      },
      "geometry": {
        "type": "Point",
        "coordinates": [
          56.11312119668861,
          8.638462275762691
        ]
      }
    },
    {
      "type": "Feature",
      "properties": {
        "norad_id": 42969,
        "name": "SENTINEL-5P",
        "group": "resource",
        "lat": 68.6759944430012,
        "lon": 124.91607844744802,
        "alt_km": 819.652909850106,
        "timestamp": "2025-12-08T23:34:03.627092+00:00",
        "meta_object_name": "SENTINEL-5P",
        "meta_object_id": "2017-064A",
        "meta_epoch": "2025-12-08T12:54:13.935456",
        "meta_mean_motion": 14.19515996,
        "meta_eccentricity": 9.565e-05,
        "meta_inclination": 98.7779,
        "meta_ra_of_asc_node": 281.1592,
        "meta_arg_of_pericenter": 87.0871,
        "meta_mean_anomaly": 273.0415,
        "meta_ephemeris_type": 0,
        "meta_classification_type": "U",
        "meta_norad_cat_id": 42969,
        "meta_element_set_no": 999,
        "meta_rev_at_epoch": 42251,
        "meta_bstar": 0.0001169899,
        "meta_mean_motion_dot": 2.02e-06,
        "meta_mean_motion_ddot": 0,
        "tle_line1": "1 42969U 17064A   25342.53766129  .00000202  00000+0  11699-3 0  9995",
        "tle_line2": "2 42969  98.7779 281.1592 0000956  87.0871 273.0415 14.19515996422514"
      },
      "geometry": {
        "type": "Point",
        "coordinates": [
          124.91607844744802,
          68.6759944430012
        ]
      }
    },
    {
      "type": "Feature",
      "properties": {
        "norad_id": 42987,
        "name": "SKYSAT-C11",
        "group": "resource",
        "lat": -62.117589576188024,
        "lon": 134.63110586959542,
        "alt_km": 432.7434015740155,
        "timestamp": "2025-12-08T23:34:03.627103+00:00",
        "meta_object_name": "SKYSAT-C11",
        "meta_object_id": "2017-068A",
        "meta_epoch": "2025-12-08T08:19:03.552096",
        "meta_mean_motion": 15.4717093,
        "meta_eccentricity": 9.299e-05,
        "meta_inclination": 97.4146,
        "meta_ra_of_asc_node": 119.7309,
        "meta_arg_of_pericenter": 106.2293,
        "meta_mean_anomaly": 253.9059,
        "meta_ephemeris_type": 0,
        "meta_classification_type": "U",
        "meta_norad_cat_id": 42987,
        "meta_element_set_no": 999,
        "meta_rev_at_epoch": 45363,
        "meta_bstar": 0.00053513536,
        "meta_mean_motion_dot": 0.00027139,
        "meta_mean_motion_ddot": 0,
        "tle_line1": "1 42987U 17068A   25342.34656889  .00027139  00000+0  53514-3 0  9999",
        "tle_line2": "2 42987  97.4146 119.7309 0000929 106.2293 253.9059 15.47170930453637"
      },
      "geometry": {
        "type": "Point",
        "coordinates": [
          134.63110586959542,
          -62.117589576188024
        ]
      }
    }
  ]
}